NUSAT-52                
1 66692U 25276AC  26068.75420433  .00007671  00000+0  37393-3 0  9999
2 66692  97.4277 144.0115 0003268  28.4269 331.7143 15.18602485 15326
FLOCK 4H-33             
1 66736U 25276BY  26068.75632564  .00008618  00000+0  40674-3 0  9996
2 66736  97.4288 144.1705 0000956 288.4074  71.7057 15.19689011 15333
